{
    "links": {
        "self": "http://www.neowsapp.com/rest/v1/neo/54016225?api_key=iIulBulltgU6a56xZRHN4H3l9WmuAYTsLGpBGhQ2"
    },
    "id": "54016225",
    "neo_reference_id": "54016225",
    "name": "(2020 FJ1)",
    "designation": "2020 FJ1",
    "nasa_jpl_url": "http://ssd.jpl.nasa.gov/sbdb.cgi?sstr=54016225",
    "absolute_magnitude_h": 25.464,
    "estimated_diameter": {
        "kilometers": {
            "estimated_diameter_min": 0.0214661904,
            "estimated_diameter_max": 0.0479998609
        },
        "meters": {
            "estimated_diameter_min": 21.4661903741,
            "estimated_diameter_max": 47.9998608945
        },
        "miles": {
            "estimated_diameter_min": 0.0133384682,
            "estimated_diameter_max": 0.0298257216
        },
        "feet": {
            "estimated_diameter_min": 70.427136027,
            "estimated_diameter_max": 157.4798636171
        }
    },
    "is_potentially_hazardous_asteroid": false,
    "close_approach_data": [
        {
            "close_approach_date": "2020-03-21",
            "close_approach_date_full": "2020-Mar-21 11:11",
            "epoch_date_close_approach": 1584789060000,
            "relative_velocity": {
                "kilometers_per_second": "5.5291050848",
                "kilometers_per_hour": "19904.7783054086",
                "miles_per_hour": "12368.055164269"
            },
            "miss_distance": {
                "astronomical": "0.0971926652",
                "lunar": "37.8079467628",
                "kilometers": "14539815.693543124",
                "miles": "9034622.5309541512"
            },
            "orbiting_body": "Earth"
        }
    ],
    "orbital_data": {
        "orbit_id": "5",
        "orbit_determination_date": "2020-04-17 06:29:39",
        "first_observation_date": "2020-03-16",
        "last_observation_date": "2020-04-16",
        "data_arc_in_days": 31,
        "observations_used": 32,
        "orbit_uncertainty": "7",
        "minimum_orbit_intersection": ".0969202",
        "jupiter_tisserand_invariant": "3.843",
        "epoch_osculation": "2459000.5",
        "eccentricity": ".4206983611153349",
        "semi_major_axis": "1.886646110186622",
        "inclination": "6.776070079069987",
        "ascending_node_longitude": "177.0843484621594",
        "orbital_period": "946.5293685820727",
        "perihelion_distance": "1.092937183626489",
        "perihelion_argument": "2.236356930598245",
        "aphelion_distance": "2.680355036746755",
        "perihelion_time": "2458928.625139498533",
        "mean_anomaly": "27.33665815281515",
        "mean_motion": ".380336851606929",
        "equinox": "J2000",
        "orbit_class": {
            "orbit_class_type": "AMO",
            "orbit_class_description": "Near-Earth asteroid orbits similar to that of 1221 Amor",
            "orbit_class_range": "1.017 AU < q (perihelion) < 1.3 AU"
        }
    },
    "is_sentry_object": false
}